IRIDIUM 26              
1 24903U 97043A   25229.87436734  .00000307  00000+0  96557-4 0  9998
2 24903  86.3907  84.6975 0001949  90.2929 269.8491 14.37183501465609
IRIDIUM 22              
1 24907U 97043E   25229.85526031  .00000289  00000+0  92784-4 0  9997
2 24907  86.3914  88.3008 0002144  90.2155 269.9287 14.35991978465627
DUMMY MASS 1            
1 24925U 97048A   25229.72181237  .00000318  00000+0  32362-4 0  9992
2 24925  86.3328 106.8803 0004432 298.8275  61.2505 14.87028717514277
DUMMY MASS 2            
1 24926U 97048B   25229.69421469  .00000322  00000+0  32992-4 0  9997
2 24926  86.3333 108.5127 0005484 313.4291  46.6477 14.86780725514045
IRIDIUM 29              
1 24944U 97051A   25229.92581036  .00000307  00000+0  97973-4 0  9997
2 24944  86.3960 118.0108 0002365  85.0456 275.1011 14.36510044462131
IRIDIUM 33              
1 24946U 97051C   25229.76631521  .00000231  00000+0  74396-4 0  9996
2 24946  86.3874 117.3430 0006055 227.8565 132.2118 14.34924897461575
IRIDIUM 28              
1 24948U 97051E   25229.92992489  .00000246  00000+0  75691-4 0  9994
2 24948  86.3959 115.4887 0001700  92.9675 267.1717 14.37421423462711
IRIDIUM 36              
1 24967U 97056C   25229.81398690  .00000268  00000+0  82749-4 0  9998
2 24967  86.4022 147.1347 0002186  92.2164 267.9284 14.37649066461072
